{
  "links" : {
    "next" : "https://api.nasa.gov/neo/rest/v1/neo/browse?page=37&size=20&api_key=jqAGvNAwUIBu4fl9FSOjdm3V4F7hIglRzI6pdX9d",
    "prev" : "https://api.nasa.gov/neo/rest/v1/neo/browse?page=35&size=20&api_key=jqAGvNAwUIBu4fl9FSOjdm3V4F7hIglRzI6pdX9d",
    "self" : "https://api.nasa.gov/neo/rest/v1/neo/browse?page=36&size=20&api_key=jqAGvNAwUIBu4fl9FSOjdm3V4F7hIglRzI6pdX9d"
  },
  "page" : {
    "size" : 20,
    "total_elements" : 20750,
    "total_pages" : 1038,
    "number" : 36
  },
  "near_earth_objects" : [ {
    "links" : {
      "self" : "https://api.nasa.gov/neo/rest/v1/neo/3394775?api_key=jqAGvNAwUIBu4fl9FSOjdm3V4F7hIglRzI6pdX9d"
    },
    "neo_reference_id" : "3394775",
    "name" : "(2007 VD191)",
    "designation" : "2007 VD191",
    "nasa_jpl_url" : "http://ssd.jpl.nasa.gov/sbdb.cgi?sstr=3394775",
    "absolute_magnitude_h" : 24.6,
    "estimated_diameter" : {
      "kilometers" : {
        "estimated_diameter_min" : 0.0319561887,
        "estimated_diameter_max" : 0.0714562102
      },
      "meters" : {
        "estimated_diameter_min" : 31.9561886721,
        "estimated_diameter_max" : 71.4562101727
      },
      "miles" : {
        "estimated_diameter_min" : 0.0198566489,
        "estimated_diameter_max" : 0.0444008168
      },
      "feet" : {
        "estimated_diameter_min" : 104.8431420431,
        "estimated_diameter_max" : 234.436392583
      }
    },
    "is_potentially_hazardous_asteroid" : false,
    "close_approach_data" : [ {
      "close_approach_date" : "2007-10-31",
      "epoch_date_close_approach" : 1193814000000,
      "relative_velocity" : {
        "kilometers_per_second" : "8.8337496365",
        "kilometers_per_hour" : "31801.4986913683",
        "miles_per_hour" : "19760.2145618671"
      },
      "miss_distance" : {
        "astronomical" : "0.0588149085",
        "lunar" : "22.8789997101",
        "kilometers" : "8798585",
        "miles" : "5467187.5"
      },
      "orbiting_body" : "Earth"
    } ],
    "orbital_data" : {
      "orbit_id" : "6",
      "orbit_determination_date" : "2017-04-06 09:05:10",
      "first_observation_date" : "2007-11-14",
      "last_observation_date" : "2007-11-16",
      "data_arc_in_days" : 2,
      "observations_used" : 12,
      "orbit_uncertainty" : "9",
      "minimum_orbit_intersection" : ".0190114",
      "jupiter_tisserand_invariant" : "5.553",
      "epoch_osculation" : "2454419.5",
      "eccentricity" : ".2455024946904711",
      "semi_major_axis" : "1.112269558693918",
      "inclination" : "12.66337545490808",
      "ascending_node_longitude" : "223.3702600076839",
      "orbital_period" : "428.4631771608567",
      "perihelion_distance" : ".839204607266292",
      "perihelion_argument" : "95.67245430684225",
      "aphelion_distance" : "1.385334510121545",
      "perihelion_time" : "2454339.774182285852",
      "mean_anomaly" : "66.98660680079408",
      "mean_motion" : ".8402122263702634",
      "equinox" : "J2000",
      "orbit_class" : {
        "orbit_class_type" : "APO",
        "orbit_class_range" : "a (semi-major axis) > 1.0 AU; q (perihelion) < 1.017 AU",
        "orbit_class_description" : "Near-Earth asteroid orbits which cross the Earth’s orbit similar to that of 1862 Apollo"
      }
    },
    "is_sentry_object" : false
  }, {
    "links" : {
      "self" : "https://api.nasa.gov/neo/rest/v1/neo/3394777?api_key=jqAGvNAwUIBu4fl9FSOjdm3V4F7hIglRzI6pdX9d"
    },
    "neo_reference_id" : "3394777",
    "name" : "(2007 VF191)",
    "designation" : "2007 VF191",
    "nasa_jpl_url" : "http://ssd.jpl.nasa.gov/sbdb.cgi?sstr=3394777",
    "absolute_magnitude_h" : 22.4,
    "estimated_diameter" : {
      "kilometers" : {
        "estimated_diameter_min" : 0.0880146521,
        "estimated_diameter_max" : 0.1968067451
      },
      "meters" : {
        "estimated_diameter_min" : 88.0146520901,
        "estimated_diameter_max" : 196.8067450894
      },
      "miles" : {
        "estimated_diameter_min" : 0.0546897524,
        "estimated_diameter_max" : 0.122290004
      },
      "feet" : {
        "estimated_diameter_min" : 288.7619911632,
        "estimated_diameter_max" : 645.6914415591
      }
    },
    "is_potentially_hazardous_asteroid" : false,
    "close_approach_data" : [ {
      "close_approach_date" : "2007-11-04",
      "epoch_date_close_approach" : 1194159600000,
      "relative_velocity" : {
        "kilometers_per_second" : "6.3078969686",
        "kilometers_per_hour" : "22708.4290868318",
        "miles_per_hour" : "14110.1347289817"
      },
      "miss_distance" : {
        "astronomical" : "0.1879308001",
        "lunar" : "73.1050872803",
        "kilometers" : "28114048",
        "miles" : "17469260"
      },
      "orbiting_body" : "Earth"
    } ],
    "orbital_data" : {
      "orbit_id" : "10",
      "orbit_determination_date" : "2017-04-06 09:05:08",
      "first_observation_date" : "2007-11-15",
      "last_observation_date" : "2007-12-16",
      "data_arc_in_days" : 31,
      "observations_used" : 23,
      "orbit_uncertainty" : "8",
      "minimum_orbit_intersection" : ".172205",
      "jupiter_tisserand_invariant" : "3.808",
      "epoch_osculation" : "2454424.5",
      "eccentricity" : ".4100734283256399",
      "semi_major_axis" : "1.91107512762019",
      "inclination" : "10.99881394939499",
      "ascending_node_longitude" : "67.22835424243767",
      "orbital_period" : "964.9727896072743",
      "perihelion_distance" : "1.127393998249119",
      "perihelion_argument" : "318.5984988322836",
      "aphelion_distance" : "2.694756256991262",
      "perihelion_time" : "2454388.916503583160",
      "mean_anomaly" : "13.27504655885256",
      "mean_motion" : ".3730675143145883",
      "equinox" : "J2000",
      "orbit_class" : {
        "orbit_class_type" : "AMO",
        "orbit_class_range" : "1.017 AU < q (perihelion) < 1.3 AU",
        "orbit_class_description" : "Near-Earth asteroid orbits similar to that of 1221 Amor"
      }
    },
    "is_sentry_object" : false
  }, {
    "links" : {
      "self" : "https://api.nasa.gov/neo/rest/v1/neo/3395313?api_key=jqAGvNAwUIBu4fl9FSOjdm3V4F7hIglRzI6pdX9d"
    },
    "neo_reference_id" : "3395313",
    "name" : "(2007 VP243)",
    "designation" : "2007 VP243",
    "nasa_jpl_url" : "http://ssd.jpl.nasa.gov/sbdb.cgi?sstr=3395313",
    "absolute_magnitude_h" : 21.4,
    "estimated_diameter" : {
      "kilometers" : {
        "estimated_diameter_min" : 0.1394938229,
        "estimated_diameter_max" : 0.3119176705
      },
      "meters" : {
        "estimated_diameter_min" : 139.4938229344,
        "estimated_diameter_max" : 311.9176705226
      },
      "miles" : {
        "estimated_diameter_min" : 0.0866774163,
        "estimated_diameter_max" : 0.1938165949
      },
      "feet" : {
        "estimated_diameter_min" : 457.6569140361,
        "estimated_diameter_max" : 1023.3519701574
      }
    },
    "is_potentially_hazardous_asteroid" : true,
    "close_approach_data" : [ {
      "close_approach_date" : "2007-08-29",
      "epoch_date_close_approach" : 1188370800000,
      "relative_velocity" : {
        "kilometers_per_second" : "9.5949938721",
        "kilometers_per_hour" : "34541.9779396833",
        "miles_per_hour" : "21463.0417925771"
      },
      "miss_distance" : {
        "astronomical" : "0.0937932578",
        "lunar" : "36.4855766296",
        "kilometers" : "14031272",
        "miles" : "8718628"
      },
      "orbiting_body" : "Earth"
    } ],
    "orbital_data" : {
      "orbit_id" : "12",
      "orbit_determination_date" : "2017-04-06 09:05:06",
      "first_observation_date" : "2007-11-15",
      "last_observation_date" : "2007-12-05",
      "data_arc_in_days" : 20,
      "observations_used" : 31,
      "orbit_uncertainty" : "7",
      "minimum_orbit_intersection" : ".0237869",
      "jupiter_tisserand_invariant" : "3.370",
      "epoch_osculation" : "2458600.5",
      "eccentricity" : ".5818193801663772",
      "semi_major_axis" : "2.258932550527411",
      "inclination" : "5.643822443119411",
      "ascending_node_longitude" : "13.95676119120745",
      "orbital_period" : "1240.09033336599",
      "perihelion_distance" : ".9446418141418991",
      "perihelion_argument" : "312.0709008511492",
      "aphelion_distance" : "3.573223286912923",
      "perihelion_time" : "2458049.451390549456",
      "mean_anomaly" : "159.9702006092877",
      "mean_motion" : ".2903014323342464",
      "equinox" : "J2000",
      "orbit_class" : {
        "orbit_class_type" : "APO",
        "orbit_class_range" : "a (semi-major axis) > 1.0 AU; q (perihelion) < 1.017 AU",
        "orbit_class_description" : "Near-Earth asteroid orbits which cross the Earth’s orbit similar to that of 1862 Apollo"
      }
    },
    "is_sentry_object" : false
  } ]
}